[{"OBJECT_NAME":"GEESAT-4 11","OBJECT_ID":"2025-170L","EPOCH":"2026-03-09T21:54:41.896224","MEAN_MOTION":14.83783005,"ECCENTRICITY":0.00072132,"INCLINATION":49.9829,"RA_OF_ASC_NODE":274.1222,"ARG_OF_PERICENTER":73.5115,"MEAN_ANOMALY":286.6615,"EPHEMERIS_TYPE":0,"CLASSIFICATION_TYPE":"U","NORAD_CAT_ID":65129,"ELEMENT_SET_NO":999,"REV_AT_EPOCH":3169,"BSTAR":0.00036515131,"MEAN_MOTION_DOT":2.831e-5,"MEAN_MOTION_DDOT":0},{"OBJECT_NAME":"CZ-6A DEB","OBJECT_ID":"2022-151ACK","EPOCH":"2026-03-09T17:07:55.484832","MEAN_MOTION":14.91029585,"ECCENTRICITY":0.00541971,"INCLINATION":98.6318,"RA_OF_ASC_NODE":144.964,"ARG_OF_PERICENTER":183.961,"MEAN_ANOMALY":176.1184,"EPHEMERIS_TYPE":0,"CLASSIFICATION_TYPE":"U","NORAD_CAT_ID":56267,"ELEMENT_SET_NO":999,"REV_AT_EPOCH":16429,"BSTAR":0.0040603804,"MEAN_MOTION_DOT":0.00041466,"MEAN_MOTION_DDOT":0}]
